EUTELSAT 8 WEST B       
1 40875U 15039B   25338.42758774 -.00000050  00000+0  00000+0 0  9991
2 40875   0.0652 349.5368 0004127 266.1668 323.7381  1.00271635 37705
EUTELSAT 9B             
1 41310U 16005A   25338.57374838  .00000076  00000+0  00000+0 0  9998
2 41310   0.0689  75.4644 0004969 190.3193  23.3980  1.00271663 36165
EUTELSAT 65 WEST A      
1 41382U 16014A   25338.55901497 -.00000262  00000+0  00000+0 0  9990
2 41382   0.0497 348.6097 0002832 272.9646 308.0993  1.00270224 35589
EUTELSAT 117 WEST B     
1 41589U 16038B   25338.45017743  .00000004  00000+0  00000+0 0  9999
2 41589   0.0071 152.5773 0000210 282.2107  43.7985  1.00269296 34718
EUTELSAT 172B           
1 42741U 17029B   25338.53516931  .00000009  00000+0  00000+0 0  9998
2 42741   0.0081  80.5787 0000171 128.2888 229.3994  1.00271190 31777
EUTELSAT 7C             
1 44334U 19034B   25338.21662867  .00000064  00000+0  00000+0 0  9992
2 44334   0.0758 179.6885 0003440  56.5984 281.9777  1.00269705  4883
EUTELSAT 5 WEST B       
1 44624U 19067A   25338.57097505 -.00000028  00000+0  00000+0 0  9991
2 44624   0.0692 330.6082 0003567 283.2398  20.3528  1.00270033 22489
EUTELSAT KONNECT        
1 45027U 20005B   25338.35938067  .00000065  00000+0  00000+0 0  9996
2 45027   0.0692 100.6020 0001642 164.0721 305.3307  1.00272344 22378
